CCSDS_OMM_VERS = 2.0
CREATION_DATE  = 
ORIGINATOR     = 

OBJECT_NAME    = ELECTRON KICK STAGE R/B
OBJECT_ID      = 2026-019C
CENTER_NAME    = EARTH
REF_FRAME      = TEME
TIME_SYSTEM    = UTC
MEAN_ELEMENT_THEORY = SGP/SGP4

EPOCH          = 2026-02-17T07:33:34.415424
MEAN_MOTION    = 15.66002989
ECCENTRICITY   = .0169579
INCLINATION    = 97.4041
RA_OF_ASC_NODE = 174.0488
ARG_OF_PERICENTER = 196.3969
MEAN_ANOMALY   = 163.1768

EPHEMERIS_TYPE = 0
CLASSIFICATION_TYPE = U
NORAD_CAT_ID   = 67616
ELEMENT_SET_NO = 999
REV_AT_EPOCH   = 284
BSTAR          = .19846E-2
MEAN_MOTION_DOT = .449375E-2
MEAN_MOTION_DDOT = .60652E-4

CCSDS_OMM_VERS = 2.0
CREATION_DATE  = 
ORIGINATOR     = 

OBJECT_NAME    = STARLINK-36548
OBJECT_ID      = 2026-020A
CENTER_NAME    = EARTH
REF_FRAME      = TEME
TIME_SYSTEM    = UTC
MEAN_ELEMENT_THEORY = SGP/SGP4

EPOCH          = 2026-02-17T02:09:10.513728
MEAN_MOTION    = 15.76442031
ECCENTRICITY   = .00020588
INCLINATION    = 42.9968
RA_OF_ASC_NODE = 267.4816
ARG_OF_PERICENTER = 247.9546
MEAN_ANOMALY   = 112.1105

EPHEMERIS_TYPE = 0
CLASSIFICATION_TYPE = U
NORAD_CAT_ID   = 67617
ELEMENT_SET_NO = 999
REV_AT_EPOCH   = 283
BSTAR          = .13208218E-2
MEAN_MOTION_DOT = .22104E-2
MEAN_MOTION_DDOT = 0

CCSDS_OMM_VERS = 2.0
CREATION_DATE  = 
ORIGINATOR     = 

OBJECT_NAME    = STARLINK-36601
OBJECT_ID      = 2026-020B
CENTER_NAME    = EARTH
REF_FRAME      = TEME
TIME_SYSTEM    = UTC
MEAN_ELEMENT_THEORY = SGP/SGP4

EPOCH          = 2026-02-17T01:31:42.621600
MEAN_MOTION    = 15.82069477
ECCENTRICITY   = .0002038
INCLINATION    = 42.9972
RA_OF_ASC_NODE = 267.2722
ARG_OF_PERICENTER = 255.9327
MEAN_ANOMALY   = 104.1318

EPHEMERIS_TYPE = 0
CLASSIFICATION_TYPE = U
NORAD_CAT_ID   = 67618
ELEMENT_SET_NO = 999
REV_AT_EPOCH   = 283
BSTAR          = .85552406E-3
MEAN_MOTION_DOT = .183952E-2
MEAN_MOTION_DDOT = 0

CCSDS_OMM_VERS = 2.0
CREATION_DATE  = 
ORIGINATOR     = 

OBJECT_NAME    = STARLINK-36119
OBJECT_ID      = 2026-020C
CENTER_NAME    = EARTH
REF_FRAME      = TEME
TIME_SYSTEM    = UTC
MEAN_ELEMENT_THEORY = SGP/SGP4

EPOCH          = 2026-02-17T14:15:55.957824
MEAN_MOTION    = 15.76469332
ECCENTRICITY   = .00010934
INCLINATION    = 42.9964
RA_OF_ASC_NODE = 264.3834
ARG_OF_PERICENTER = 244.7855
MEAN_ANOMALY   = 115.2901

EPHEMERIS_TYPE = 0
CLASSIFICATION_TYPE = U
NORAD_CAT_ID   = 67619
ELEMENT_SET_NO = 999
REV_AT_EPOCH   = 291
BSTAR          = .16534058E-2
MEAN_MOTION_DOT = .279079E-2
MEAN_MOTION_DDOT = 0

CCSDS_OMM_VERS = 2.0
CREATION_DATE  = 
ORIGINATOR     = 

OBJECT_NAME    = STARLINK-36607
OBJECT_ID      = 2026-020D
CENTER_NAME    = EARTH
REF_FRAME      = TEME
TIME_SYSTEM    = UTC
MEAN_ELEMENT_THEORY = SGP/SGP4

EPOCH          = 2026-02-17T01:29:09.613248
MEAN_MOTION    = 15.82056978
ECCENTRICITY   = .00015178
INCLINATION    = 42.9966
RA_OF_ASC_NODE = 267.2579
ARG_OF_PERICENTER = 257.6999
MEAN_ANOMALY   = 102.3703

EPHEMERIS_TYPE = 0
CLASSIFICATION_TYPE = U
NORAD_CAT_ID   = 67620
ELEMENT_SET_NO = 999
REV_AT_EPOCH   = 283
BSTAR          = .76928271E-3
MEAN_MOTION_DOT = .164886E-2
MEAN_MOTION_DDOT = 0

CCSDS_OMM_VERS = 2.0
CREATION_DATE  = 
ORIGINATOR     = 

OBJECT_NAME    = STARLINK-36615
OBJECT_ID      = 2026-020E
CENTER_NAME    = EARTH
REF_FRAME      = TEME
TIME_SYSTEM    = UTC
MEAN_ELEMENT_THEORY = SGP/SGP4

EPOCH          = 2026-02-17T14:00:01.999872
MEAN_MOTION    = 15.81888267
ECCENTRICITY   = .00020705
INCLINATION    = 42.9976
RA_OF_ASC_NODE = 264.0709
ARG_OF_PERICENTER = 269.9923
MEAN_ANOMALY   = 179.7450

EPHEMERIS_TYPE = 0
CLASSIFICATION_TYPE = U
NORAD_CAT_ID   = 67621
ELEMENT_SET_NO = 999
REV_AT_EPOCH   = 415
BSTAR          = .88105838E-3
MEAN_MOTION_DOT = .187947E-2
MEAN_MOTION_DDOT = 0

CCSDS_OMM_VERS = 2.0
CREATION_DATE  = 
ORIGINATOR     = 

OBJECT_NAME    = STARLINK-36614
OBJECT_ID      = 2026-020F
CENTER_NAME    = EARTH
REF_FRAME      = TEME
TIME_SYSTEM    = UTC
MEAN_ELEMENT_THEORY = SGP/SGP4

EPOCH          = 2026-02-16T22:57:14.637024
MEAN_MOTION    = 15.76452436
ECCENTRICITY   = .00022856
INCLINATION    = 42.9973
RA_OF_ASC_NODE = 268.1982
ARG_OF_PERICENTER = 293.2887
MEAN_ANOMALY   = 66.7742

EPHEMERIS_TYPE = 0
CLASSIFICATION_TYPE = U
NORAD_CAT_ID   = 67622
ELEMENT_SET_NO = 999
REV_AT_EPOCH   = 281
BSTAR          = .16073815E-2
MEAN_MOTION_DOT = .27083E-2
MEAN_MOTION_DDOT = 0

CCSDS_OMM_VERS = 2.0
CREATION_DATE  = 
ORIGINATOR     = 

OBJECT_NAME    = STARLINK-36600
OBJECT_ID      = 2026-020G
CENTER_NAME    = EARTH
REF_FRAME      = TEME
TIME_SYSTEM    = UTC
MEAN_ELEMENT_THEORY = SGP/SGP4

EPOCH          = 2026-02-17T14:12:45.366336
MEAN_MOTION    = 15.76515796
ECCENTRICITY   = .00014736
INCLINATION    = 42.9965
RA_OF_ASC_NODE = 264.3661
ARG_OF_PERICENTER = 290.8387
MEAN_ANOMALY   = 69.2325

EPHEMERIS_TYPE = 0
CLASSIFICATION_TYPE = U
NORAD_CAT_ID   = 67623
ELEMENT_SET_NO = 999
REV_AT_EPOCH   = 291
BSTAR          = .15893213E-2
MEAN_MOTION_DOT = .268452E-2
MEAN_MOTION_DDOT = 0

CCSDS_OMM_VERS = 2.0
CREATION_DATE  = 
ORIGINATOR     = 

OBJECT_NAME    = STARLINK-36439
OBJECT_ID      = 2026-020H
CENTER_NAME    = EARTH
REF_FRAME      = TEME
TIME_SYSTEM    = UTC
MEAN_ELEMENT_THEORY = SGP/SGP4

EPOCH          = 2026-02-17T14:00:01.999872
MEAN_MOTION    = 15.76266955
ECCENTRICITY   = .00016153
INCLINATION    = 42.9982
RA_OF_ASC_NODE = 264.2646
ARG_OF_PERICENTER = 261.8509
MEAN_ANOMALY   = 110.1433

EPHEMERIS_TYPE = 0
CLASSIFICATION_TYPE = U
NORAD_CAT_ID   = 67624
ELEMENT_SET_NO = 999
REV_AT_EPOCH   = 415
BSTAR          = .10715584E-2
MEAN_MOTION_DOT = .176915E-2
MEAN_MOTION_DDOT = 0

CCSDS_OMM_VERS = 2.0
CREATION_DATE  = 
ORIGINATOR     = 

OBJECT_NAME    = STARLINK-36438
OBJECT_ID      = 2026-020J
CENTER_NAME    = EARTH
REF_FRAME      = TEME
TIME_SYSTEM    = UTC
MEAN_ELEMENT_THEORY = SGP/SGP4

EPOCH          = 2026-02-17T14:06:28.518048
MEAN_MOTION    = 15.76480524
ECCENTRICITY   = .00019148
INCLINATION    = 42.9966
RA_OF_ASC_NODE = 264.3306
ARG_OF_PERICENTER = 241.4419
MEAN_ANOMALY   = 118.6258

EPHEMERIS_TYPE = 0
CLASSIFICATION_TYPE = U
NORAD_CAT_ID   = 67625
ELEMENT_SET_NO = 999
REV_AT_EPOCH   = 291
BSTAR          = .16425115E-2
MEAN_MOTION_DOT = .277315E-2
MEAN_MOTION_DDOT = 0

CCSDS_OMM_VERS = 2.0
CREATION_DATE  = 
ORIGINATOR     = 

OBJECT_NAME    = STARLINK-36436
OBJECT_ID      = 2026-020K
CENTER_NAME    = EARTH
REF_FRAME      = TEME
TIME_SYSTEM    = UTC
MEAN_ELEMENT_THEORY = SGP/SGP4

EPOCH          = 2026-02-17T15:01:41.013696
MEAN_MOTION    = 15.82319863
ECCENTRICITY   = .00025293
INCLINATION    = 42.9963
RA_OF_ASC_NODE = 263.7417
ARG_OF_PERICENTER = 261.8317
MEAN_ANOMALY   = 98.2268

EPHEMERIS_TYPE = 0
CLASSIFICATION_TYPE = U
NORAD_CAT_ID   = 67626
ELEMENT_SET_NO = 999
REV_AT_EPOCH   = 292
BSTAR          = .28056564E-2
MEAN_MOTION_DOT = .645525E-2
MEAN_MOTION_DDOT = 0

CCSDS_OMM_VERS = 2.0
CREATION_DATE  = 
ORIGINATOR     = 

OBJECT_NAME    = STARLINK-36502
OBJECT_ID      = 2026-020L
CENTER_NAME    = EARTH
REF_FRAME      = TEME
TIME_SYSTEM    = UTC
MEAN_ELEMENT_THEORY = SGP/SGP4

EPOCH          = 2026-02-17T15:02:44.170368
MEAN_MOTION    = 15.82319857
ECCENTRICITY   = .00023461
INCLINATION    = 42.9960
RA_OF_ASC_NODE = 263.7476
ARG_OF_PERICENTER = 267.2303
MEAN_ANOMALY   = 92.8300

EPHEMERIS_TYPE = 0
CLASSIFICATION_TYPE = U
NORAD_CAT_ID   = 67627
ELEMENT_SET_NO = 999
REV_AT_EPOCH   = 292
BSTAR          = .28250385E-2
MEAN_MOTION_DOT = .650365E-2
MEAN_MOTION_DDOT = 0

