ELECTRON KICK STAGE R/B 
1 67616U 26019C   26048.31498166  .00449375  60652-4  19846-2 0  9997
2 67616  97.4041 174.0488 0169579 196.3969 163.1768 15.66002989  2847
STARLINK-36548          
1 67617U 26020A   26048.08970502  .00221040  00000+0  13208-2 0  9992
2 67617  42.9968 267.4816 0002058 247.9546 112.1105 15.76442031  2830
STARLINK-36601          
1 67618U 26020B   26048.06368775  .00183952  00000+0  85552-3 0  9995
2 67618  42.9972 267.2722 0002038 255.9327 104.1318 15.82069477  2837
STARLINK-36119          
1 67619U 26020C   26048.59439766  .00279079  00000+0  16534-2 0  9992
2 67619  42.9964 264.3834 0001093 244.7855 115.2901 15.76469332  2910
STARLINK-36607          
1 67620U 26020D   26048.06191682  .00164886  00000+0  76928-3 0  9991
2 67620  42.9966 267.2579 0001517 257.6999 102.3703 15.82056978  2838
STARLINK-36615          
1 67621U 26020E   26048.58335648  .00187947  00000+0  88106-3 0  9995
2 67621  42.9976 264.0709 0002070 269.9923 179.7450 15.81888267  4155
STARLINK-36614          
1 67622U 26020F   26047.95641941  .00270830  00000+0  16074-2 0  9990
2 67622  42.9973 268.1982 0002285 293.2887  66.7742 15.76452436  2817
STARLINK-36600          
1 67623U 26020G   26048.59219174  .00268452  00000+0  15893-2 0  9996
2 67623  42.9965 264.3661 0001473 290.8387  69.2325 15.76515796  2912
STARLINK-36439          
1 67624U 26020H   26048.58335648  .00176915  00000+0  10716-2 0  9992
2 67624  42.9982 264.2646 0001615 261.8509 110.1433 15.76266955  4150
STARLINK-36438          
1 67625U 26020J   26048.58783007  .00277315  00000+0  16425-2 0  9998
2 67625  42.9966 264.3306 0001914 241.4419 118.6258 15.76480524  2913
STARLINK-36436          
1 67626U 26020K   26048.62616914  .00645525  00000+0  28057-2 0  9992
2 67626  42.9963 263.7417 0002529 261.8317  98.2268 15.82319863  2922
STARLINK-36502          
1 67627U 26020L   26048.62690012  .00650365  00000+0  28250-2 0  9997
2 67627  42.9960 263.7476 0002346 267.2303  92.8300 15.82319857  2927
